WORLDVIEW-1 (WV-1)      
1 32060U 07041A   26186.40960688  .00009238  00000+0  37871-3 0  9997
2 32060  97.3895 305.8954 0000922 277.7721  82.3412 15.24481510 45655
WORLDVIEW-2 (WV-2)      
1 35946U 09055A   26186.39531579  .00000187  00000+0  76319-4 0  9996
2 35946  98.4760 259.5965 0004847 154.2669 205.8760 14.37905256878261
WORLDVIEW-3 (WV-3)      
1 40115U 14048A   26186.42725921  .00001170  00000+0  14322-3 0  9996
2 40115  97.8560 261.0080 0000507 167.0322 193.0906 14.85054576644612
